{"type": "FeatureCollection", "features": [{"type": "Feature", "geometry": {"type": "Point", "coordinates": [-0.261311, 43.271941]}, "properties": {"type": "Poteau incendie 60 m³/h", "commune": "Artigueloutan", "x": 435156.0, "y": 6246888.0}}, {"type": "Feature", "geometry": {"type": "Point", "coordinates": [-0.257398, 43.273563]}, "properties": {"type": "Poteau incendie 60 m³/h", "commune": "Artigueloutan", "x": 435481.0, "y": 6247055.0}}, {"type": "Feature", "geometry": {"type": "Point", "coordinates": [-0.252841, 43.27397]}, "properties": {"type": "Poteau incendie 60 m³/h", "commune": "Artigueloutan", "x": 435852.7, "y": 6247085.0}}, {"type": "Feature", "geometry": {"type": "Point", "coordinates": [-0.250358, 43.264943]}, "properties": {"type": "Poteau incendie 60 m³/h", "commune": "Artigueloutan", "x": 436013.0, "y": 6246074.0}}, {"type": "Feature", "geometry": {"type": "Point", "coordinates": [-0.250853, 43.273958]}, "properties": {"type": "Poteau incendie 60 m³/h", "commune": "Artigueloutan", "x": 436014.0, "y": 6247077.0}}, {"type": "Feature", "geometry": {"type": "Point", "coordinates": [-0.249189, 43.275962]}, "properties": {"type": "Poteau incendie 60 m³/h", "commune": "Artigueloutan", "x": 436158.2, "y": 6247294.0}}, {"type": "Feature", "geometry": {"type": "Point", "coordinates": [-0.249279, 43.27992]}, "properties": {"type": "Poteau incendie 60 m³/h", "commune": "Artigueloutan", "x": 436169.0, "y": 6247734.0}}, {"type": "Feature", "geometry": {"type": "Point", "coordinates": [-0.247714, 43.268092]}, "properties": {"type": "Poteau incendie 60 m³/h", "commune": "Artigueloutan", "x": 436242.0, "y": 6246415.0}}, {"type": "Feature", "geometry": {"type": "Point", "coordinates": [-0.245978, 43.260888]}, "properties": {"type": "Poteau incendie 60 m³/h", "commune": "Artigueloutan", "x": 436350.0, "y": 6245609.0}}, {"type": "Feature", "geometry": {"type": "Point", "coordinates": [-0.245995, 43.273231]}, "properties": {"type": "Poteau incendie 60 m³/h", "commune": "Artigueloutan", "x": 436405.0, "y": 6246980.0}}, {"type": "Feature", "geometry": {"type": "Point", "coordinates": [-0.24712, 43.311734]}, "properties": {"type": "Réserve artificielle", "commune": "Andoins", "x": 436489.64, "y": 6251260.43}}, {"type": "Feature", "geometry": {"type": "Point", "coordinates": [-0.244568, 43.277892]}, "properties": {"type": "Poteau incendie 60 m³/h", "commune": "Artigueloutan", "x": 436542.1, "y": 6247493.0}}, {"type": "Feature", "geometry": {"type": "Point", "coordinates": [-0.244514, 43.279109]}, "properties": {"type": "Poteau incendie 60 m³/h", "commune": "Artigueloutan", "x": 436552.0, "y": 6247628.0}}, {"type": "Feature", "geometry": {"type": "Point", "coordinates": [-0.243216, 43.273989]}, "properties": {"type": "Poteau incendie 60 m³/h", "commune": "Artigueloutan", "x": 436634.0, "y": 6247055.0}}, {"type": "Feature", "geometry": {"type": "Point", "coordinates": [-0.242358, 43.270567]}, "properties": {"type": "Poteau incendie 60 m³/h", "commune": "Artigueloutan", "x": 436688.0, "y": 6246672.0}}, {"type": "Feature", "geometry": {"type": "Point", "coordinates": [-0.241554, 43.27665]}, "properties": {"type": "Poteau incendie 60 m³/h", "commune": "Artigueloutan", "x": 436781.0, "y": 6247345.0}}, {"type": "Feature", "geometry": {"type": "Point", "coordinates": [-0.240049, 43.269592]}, "properties": {"type": "Poteau incendie 60 m³/h", "commune": "Artigueloutan", "x": 436871.0, "y": 6246556.0}}, {"type": "Feature", "geometry": {"type": "Point", "coordinates": [-0.23997, 43.271485]}, "properties": {"type": "Poteau incendie 60 m³/h", "commune": "Artigueloutan", "x": 436886.0, "y": 6246766.0}}, {"type": "Feature", "geometry": {"type": "Point", "coordinates": [-0.238521, 43.271789]}, "properties": {"type": "Poteau incendie 60 m³/h", "commune": "Artigueloutan", "x": 437005.0, "y": 6246795.0}}, {"type": "Feature", "geometry": {"type": "Point", "coordinates": [-0.238124, 43.271099]}, "properties": {"type": "Poteau incendie 60 m³/h", "commune": "Artigueloutan", "x": 437034.09, "y": 6246717.01}}, {"type": "Feature", "geometry": {"type": "Point", "coordinates": [-0.240221, 43.311478]}, "properties": {"type": "Poteau incendie 60 m³/h", "commune": "Andoins", "x": 437048.0, "y": 6251209.0}}, {"type": "Feature", "geometry": {"type": "Point", "coordinates": [-0.239655, 43.301421]}, "properties": {"type": "Poteau incendie 60 m³/h", "commune": "Andoins", "x": 437048.1, "y": 6250090.0}}, {"type": "Feature", "geometry": {"type": "Point", "coordinates": [-0.237119, 43.276441]}, "properties": {"type": "Poteau incendie 60 m³/h", "commune": "Artigueloutan", "x": 437140.0, "y": 6247307.0}}, {"type": "Feature", "geometry": {"type": "Point", "coordinates": [-0.23678, 43.290053]}, "properties": {"type": "Réserve artificielle", "commune": "Andoins", "x": 437229.51, "y": 6248817.81}}, {"type": "Feature", "geometry": {"type": "Point", "coordinates": [-0.233244, 43.269561]}, "properties": {"type": "Bouche incendie", "commune": "Artigueloutan", "x": 437423.14, "y": 6246529.9}}, {"type": "Feature", "geometry": {"type": "Point", "coordinates": [-0.235222, 43.330067]}, "properties": {"type": "Réserve naturelle", "commune": "Ouillon", "x": 437538.1, "y": 6253257.0}}, {"type": "Feature", "geometry": {"type": "Point", "coordinates": [-0.234397, 43.318198]}, "properties": {"type": "Poteau incendie 60 m³/h", "commune": "Ouillon", "x": 437551.0, "y": 6251936.0}}, {"type": "Feature", "geometry": {"type": "Point", "coordinates": [-0.233035, 43.320643]}, "properties": {"type": "Poteau incendie 60 m³/h", "commune": "Ouillon", "x": 437672.6, "y": 6252203.0}}, {"type": "Feature", "geometry": {"type": "Point", "coordinates": [-0.23109, 43.307646]}, "properties": {"type": "Poteau incendie 60 m³/h", "commune": "Andoins", "x": 437771.2, "y": 6250753.0}}, {"type": "Feature", "geometry": {"type": "Point", "coordinates": [-0.231031, 43.307657]}, "properties": {"type": "Réserve artificielle", "commune": "Andoins", "x": 437776.0, "y": 6250754.0}}, {"type": "Feature", "geometry": {"type": "Point", "coordinates": [-0.230652, 43.303311]}, "properties": {"type": "Poteau incendie 60 m³/h", "commune": "Andoins", "x": 437787.0, "y": 6250270.0}}, {"type": "Feature", "geometry": {"type": "Point", "coordinates": [-0.230833, 43.308086]}, "properties": {"type": "Poteau incendie 60 m³/h", "commune": "Andoins", "x": 437794.0, "y": 6250801.0}}, {"type": "Feature", "geometry": {"type": "Point", "coordinates": [-0.228655, 43.280188]}, "properties": {"type": "Réserve artificielle", "commune": "Artigueloutan", "x": 437843.9, "y": 6247695.0}}, {"type": "Feature", "geometry": {"type": "Point", "coordinates": [-0.229047, 43.305024]}, "properties": {"type": "Poteau incendie 60 m³/h", "commune": "Andoins", "x": 437925.0, "y": 6250455.0}}, {"type": "Feature", "geometry": {"type": "Point", "coordinates": [-0.2287, 43.302109]}, "properties": {"type": "Poteau incendie 60 m³/h", "commune": "Andoins", "x": 437939.9, "y": 6250130.0}}, {"type": "Feature", "geometry": {"type": "Point", "coordinates": [-0.227764, 43.301453]}, "properties": {"type": "Poteau incendie 60 m³/h", "commune": "Andoins", "x": 438012.8, "y": 6250054.0}}, {"type": "Feature", "geometry": {"type": "Point", "coordinates": [-0.22725, 43.303097]}, "properties": {"type": "Poteau incendie 60 m³/h", "commune": "Andoins", "x": 438062.0, "y": 6250235.0}}, {"type": "Feature", "geometry": {"type": "Point", "coordinates": [-0.228363, 43.324726]}, "properties": {"type": "Poteau incendie 60 m³/h", "commune": "Ouillon", "x": 438070.0, "y": 6252641.0}}, {"type": "Feature", "geometry": {"type": "Point", "coordinates": [-0.224325, 43.255217]}, "properties": {"type": "Poteau incendie 60 m³/h", "commune": "Nousty", "x": 438082.0, "y": 6244907.0}}, {"type": "Feature", "geometry": {"type": "Point", "coordinates": [-0.224717, 43.269952]}, "properties": {"type": "Poteau incendie 60 m³/h", "commune": "Nousty", "x": 438117.0, "y": 6246545.0}}, {"type": "Feature", "geometry": {"type": "Point", "coordinates": [-0.225981, 43.301101]}, "properties": {"type": "Poteau incendie 60 m³/h", "commune": "Andoins", "x": 438155.9, "y": 6250009.0}}, {"type": "Feature", "geometry": {"type": "Point", "coordinates": [-0.226964, 43.320464]}, "properties": {"type": "Poteau incendie 60 m³/h", "commune": "Ouillon", "x": 438164.1, "y": 6252163.0}}, {"type": "Feature", "geometry": {"type": "Point", "coordinates": [-0.224503, 43.296742]}, "properties": {"type": "Poteau incendie 60 m³/h", "commune": "Andoins", "x": 438256.0, "y": 6249520.0}}, {"type": "Feature", "geometry": {"type": "Point", "coordinates": [-0.225764, 43.322589]}, "properties": {"type": "Poteau incendie 60 m³/h", "commune": "Ouillon", "x": 438271.0, "y": 6252395.0}}, {"type": "Feature", "geometry": {"type": "Point", "coordinates": [-0.221639, 43.259969]}, "properties": {"type": "Poteau incendie 60 m³/h", "commune": "Nousty", "x": 438321.6, "y": 6245426.0}}, {"type": "Feature", "geometry": {"type": "Point", "coordinates": [-0.222833, 43.295307]}, "properties": {"type": "Poteau incendie 60 m³/h", "commune": "Andoins", "x": 438385.0, "y": 6249355.0}}, {"type": "Feature", "geometry": {"type": "Point", "coordinates": [-0.222568, 43.293667]}, "properties": {"type": "Poteau incendie 60 m³/h", "commune": "Andoins", "x": 438399.0, "y": 6249172.0}}, {"type": "Feature", "geometry": {"type": "Point", "coordinates": [-0.218567, 43.251409]}, "properties": {"type": "Poteau incendie 60 m³/h", "commune": "Nousty", "x": 438532.2, "y": 6244465.0}}, {"type": "Feature", "geometry": {"type": "Point", "coordinates": [-0.219456, 43.273476]}, "properties": {"type": "Poteau incendie 60 m³/h", "commune": "Nousty", "x": 438560.0, "y": 6246919.0}}, {"type": "Feature", "geometry": {"type": "Point", "coordinates": [-0.217183, 43.266953]}, "properties": {"type": "Poteau incendie 60 m³/h", "commune": "Nousty", "x": 438715.0, "y": 6246187.0}}, {"type": "Feature", "geometry": {"type": "Point", "coordinates": [-0.216382, 43.267616]}, "properties": {"type": "Poteau incendie 60 m³/h", "commune": "Nousty", "x": 438783.0, "y": 6246258.0}}, {"type": "Feature", "geometry": {"type": "Point", "coordinates": [-0.218473, 43.306195]}, "properties": {"type": "Poteau incendie 60 m³/h", "commune": "Andoins", "x": 438788.0, "y": 6250550.0}}, {"type": "Feature", "geometry": {"type": "Point", "coordinates": [-0.21679, 43.280297]}, "properties": {"type": "Réserve artificielle", "commune": "Nousty", "x": 438807.32, "y": 6247667.86}}, {"type": "Feature", "geometry": {"type": "Point", "coordinates": [-0.215099, 43.259183]}, "properties": {"type": "Poteau incendie 60 m³/h", "commune": "Nousty", "x": 438849.0, "y": 6245317.0}}, {"type": "Feature", "geometry": {"type": "Point", "coordinates": [-0.214481, 43.266233]}, "properties": {"type": "Poteau incendie 60 m³/h", "commune": "Nousty", "x": 438931.0, "y": 6246098.0}}, {"type": "Feature", "geometry": {"type": "Point", "coordinates": [-0.217332, 43.321301]}, "properties": {"type": "Poteau incendie 60 m³/h", "commune": "Ouillon", "x": 438949.0, "y": 6252224.0}}, {"type": "Feature", "geometry": {"type": "Point", "coordinates": [-0.213991, 43.26694]}, "properties": {"type": "Poteau incendie 60 m³/h", "commune": "Nousty", "x": 438974.0, "y": 6246175.0}}, {"type": "Feature", "geometry": {"type": "Point", "coordinates": [-0.213911, 43.295284]}, "properties": {"type": "Poteau incendie 60 m³/h", "commune": "Andoins", "x": 439108.7, "y": 6249323.0}}, {"type": "Feature", "geometry": {"type": "Point", "coordinates": [-0.211452, 43.26626]}, "properties": {"type": "Poteau incendie 60 m³/h", "commune": "Nousty", "x": 439177.0, "y": 6246091.0}}, {"type": "Feature", "geometry": {"type": "Point", "coordinates": [-0.211452, 43.27312]}, "properties": {"type": "Poteau incendie 60 m³/h", "commune": "Nousty", "x": 439208.0, "y": 6246853.0}}, {"type": "Feature", "geometry": {"type": "Point", "coordinates": [-0.211094, 43.272311]}, "properties": {"type": "Poteau incendie 60 m³/h", "commune": "Nousty", "x": 439233.4, "y": 6246762.0}}, {"type": "Feature", "geometry": {"type": "Point", "coordinates": [-0.210124, 43.2681]}, "properties": {"type": "Poteau incendie 60 m³/h", "commune": "Nousty", "x": 439293.1, "y": 6246291.0}}, {"type": "Feature", "geometry": {"type": "Point", "coordinates": [-0.209966, 43.26589]}, "properties": {"type": "Poteau incendie 60 m³/h", "commune": "Nousty", "x": 439296.0, "y": 6246045.0}}, {"type": "Feature", "geometry": {"type": "Point", "coordinates": [-0.209746, 43.264042]}, "properties": {"type": "Poteau incendie 60 m³/h", "commune": "Nousty", "x": 439305.5, "y": 6245839.0}}, {"type": "Feature", "geometry": {"type": "Point", "coordinates": [-0.207932, 43.265401]}, "properties": {"type": "Poteau incendie 60 m³/h", "commune": "Nousty", "x": 439458.9, "y": 6245984.0}}, {"type": "Feature", "geometry": {"type": "Point", "coordinates": [-0.207583, 43.267131]}, "properties": {"type": "Poteau incendie 60 m³/h", "commune": "Nousty", "x": 439495.0, "y": 6246175.0}}, {"type": "Feature", "geometry": {"type": "Point", "coordinates": [-0.210723, 43.338801]}, "properties": {"type": "Réserve artificielle", "commune": "Sedzère", "x": 439564.0, "y": 6254146.0}}, {"type": "Feature", "geometry": {"type": "Point", "coordinates": [-0.206847, 43.269854]}, "properties": {"type": "Poteau incendie 60 m³/h", "commune": "Nousty", "x": 439567.0, "y": 6246475.0}}, {"type": "Feature", "geometry": {"type": "Point", "coordinates": [-0.209446, 43.319869]}, "properties": {"type": "Poteau incendie 60 m³/h", "commune": "Espéchède", "x": 439582.0, "y": 6252039.0}}, {"type": "Feature", "geometry": {"type": "Point", "coordinates": [-0.207879, 43.29197]}, "properties": {"type": "Poteau incendie 60 m³/h", "commune": "Andoins", "x": 439583.1, "y": 6248935.0}}, {"type": "Feature", "geometry": {"type": "Point", "coordinates": [-0.210178, 43.338088]}, "properties": {"type": "Réserve artificielle", "commune": "Sedzère", "x": 439605.0, "y": 6254065.0}}, {"type": "Feature", "geometry": {"type": "Point", "coordinates": [-0.205375, 43.269519]}, "properties": {"type": "Poteau incendie 60 m³/h", "commune": "Nousty", "x": 439685.0, "y": 6246433.0}}, {"type": "Feature", "geometry": {"type": "Point", "coordinates": [-0.206412, 43.300549]}, "properties": {"type": "Poteau incendie 60 m³/h", "commune": "Andoins", "x": 439740.9, "y": 6249883.0}}, {"type": "Feature", "geometry": {"type": "Point", "coordinates": [-0.207955, 43.336723]}, "properties": {"type": "Réserve artificielle", "commune": "Sedzère", "x": 439779.0, "y": 6253906.0}}, {"type": "Feature", "geometry": {"type": "Point", "coordinates": [-0.202915, 43.249183]}, "properties": {"type": "Poteau incendie 60 m³/h", "commune": "Gomer", "x": 439793.0, "y": 6244166.0}}, {"type": "Feature", "geometry": {"type": "Point", "coordinates": [-0.203805, 43.270754]}, "properties": {"type": "Poteau incendie 60 m³/h", "commune": "Nousty", "x": 439818.0, "y": 6246565.0}}, {"type": "Feature", "geometry": {"type": "Point", "coordinates": [-0.206733, 43.334706]}, "properties": {"type": "Réserve artificielle", "commune": "Sedzère", "x": 439869.0, "y": 6253678.0}}, {"type": "Feature", "geometry": {"type": "Point", "coordinates": [-0.205892, 43.332003]}, "properties": {"type": "Réserve artificielle", "commune": "Sedzère", "x": 439925.0, "y": 6253375.0}}, {"type": "Feature", "geometry": {"type": "Point", "coordinates": [-0.205521, 43.335544]}, "properties": {"type": "Réserve artificielle", "commune": "Sedzère", "x": 439971.0, "y": 6253767.0}}, {"type": "Feature", "geometry": {"type": "Point", "coordinates": [-0.200825, 43.270843]}, "properties": {"type": "Poteau incendie 60 m³/h", "commune": "Nousty", "x": 440060.3, "y": 6246565.0}}, {"type": "Feature", "geometry": {"type": "Point", "coordinates": [-0.203352, 43.332457]}, "properties": {"type": "Réserve artificielle", "commune": "Sedzère", "x": 440133.0, "y": 6253417.0}}, {"type": "Feature", "geometry": {"type": "Point", "coordinates": [-0.198582, 43.265444]}, "properties": {"type": "Poteau incendie 60 m³/h", "commune": "Soumoulou", "x": 440218.0, "y": 6245958.0}}, {"type": "Feature", "geometry": {"type": "Point", "coordinates": [-0.198717, 43.271625]}, "properties": {"type": "Poteau incendie 60 m³/h", "commune": "Nousty", "x": 440234.9, "y": 6246645.0}}, {"type": "Feature", "geometry": {"type": "Point", "coordinates": [-0.198039, 43.269188]}, "properties": {"type": "Poteau incendie 60 m³/h", "commune": "Soumoulou", "x": 440279.0, "y": 6246372.0}}, {"type": "Feature", "geometry": {"type": "Point", "coordinates": [-0.198106, 43.270428]}, "properties": {"type": "Poteau incendie 60 m³/h", "commune": "Soumoulou", "x": 440279.1, "y": 6246510.0}}, {"type": "Feature", "geometry": {"type": "Point", "coordinates": [-0.196696, 43.249007]}, "properties": {"type": "Poteau incendie 60 m³/h", "commune": "Gomer", "x": 440297.2, "y": 6244126.0}}, {"type": "Feature", "geometry": {"type": "Point", "coordinates": [-0.197353, 43.285935]}, "properties": {"type": "Poteau incendie 60 m³/h", "commune": "Limendous", "x": 440410.0, "y": 6248230.0}}, {"type": "Feature", "geometry": {"type": "Point", "coordinates": [-0.196293, 43.27113]}, "properties": {"type": "Poteau incendie 60 m³/h", "commune": "Soumoulou", "x": 440429.4, "y": 6246582.0}}, {"type": "Feature", "geometry": {"type": "Point", "coordinates": [-0.196304, 43.271794]}, "properties": {"type": "Réserve artificielle", "commune": "Soumoulou", "x": 440431.5, "y": 6246655.83}}, {"type": "Feature", "geometry": {"type": "Point", "coordinates": [-0.195259, 43.263265]}, "properties": {"type": "Poteau incendie 60 m³/h", "commune": "Soumoulou", "x": 440478.0, "y": 6245705.0}}, {"type": "Feature", "geometry": {"type": "Point", "coordinates": [-0.19811, 43.317838]}, "properties": {"type": "Réserve artificielle", "commune": "Espéchède", "x": 440492.2, "y": 6251776.0}}, {"type": "Feature", "geometry": {"type": "Point", "coordinates": [-0.193503, 43.246914]}, "properties": {"type": "Poteau incendie 30 m³/h", "commune": "Gomer", "x": 440547.0, "y": 6243883.0}}, {"type": "Feature", "geometry": {"type": "Point", "coordinates": [-0.194458, 43.268231]}, "properties": {"type": "Poteau incendie 60 m³/h", "commune": "Soumoulou", "x": 440565.3, "y": 6246254.0}}, {"type": "Feature", "geometry": {"type": "Point", "coordinates": [-0.194469, 43.270581]}, "properties": {"type": "Poteau incendie 60 m³/h", "commune": "Soumoulou", "x": 440575.0, "y": 6246515.0}}, {"type": "Feature", "geometry": {"type": "Point", "coordinates": [-0.197952, 43.339693]}, "properties": {"type": "Poteau incendie 60 m³/h", "commune": "Sedzère", "x": 440603.33, "y": 6254202.99}}, {"type": "Feature", "geometry": {"type": "Point", "coordinates": [-0.193474, 43.261832]}, "properties": {"type": "Poteau incendie 60 m³/h", "commune": "Soumoulou", "x": 440616.4, "y": 6245540.0}}, {"type": "Feature", "geometry": {"type": "Point", "coordinates": [-0.193648, 43.267769]}, "properties": {"type": "Poteau incendie 60 m³/h", "commune": "Soumoulou", "x": 440629.0, "y": 6246200.0}}, {"type": "Feature", "geometry": {"type": "Point", "coordinates": [-0.193626, 43.269606]}, "properties": {"type": "Poteau incendie 60 m³/h", "commune": "Soumoulou", "x": 440639.0, "y": 6246404.0}}, {"type": "Feature", "geometry": {"type": "Point", "coordinates": [-0.191732, 43.236703]}, "properties": {"type": "Poteau incendie 60 m³/h", "commune": "Lucgarier", "x": 440645.0, "y": 6242743.0}}, {"type": "Feature", "geometry": {"type": "Point", "coordinates": [-0.192878, 43.263785]}, "properties": {"type": "Poteau incendie 60 m³/h", "commune": "Soumoulou", "x": 440673.6, "y": 6245755.0}}, {"type": "Feature", "geometry": {"type": "Point", "coordinates": [-0.18986, 43.249839]}, "properties": {"type": "Poteau incendie 60 m³/h", "commune": "Gomer", "x": 440856.0, "y": 6244196.0}}, {"type": "Feature", "geometry": {"type": "Point", "coordinates": [-0.188931, 43.237281]}, "properties": {"type": "Poteau incendie 60 m³/h", "commune": "Lucgarier", "x": 440875.0, "y": 6242798.0}}, {"type": "Feature", "geometry": {"type": "Point", "coordinates": [-0.189783, 43.260267]}, "properties": {"type": "Poteau incendie 60 m³/h", "commune": "Soumoulou", "x": 440909.0, "y": 6245354.0}}, {"type": "Feature", "geometry": {"type": "Point", "coordinates": [-0.189823, 43.261868]}, "properties": {"type": "Poteau incendie 60 m³/h", "commune": "Soumoulou", "x": 440913.0, "y": 6245532.0}}, {"type": "Feature", "geometry": {"type": "Point", "coordinates": [-0.187589, 43.228805]}, "properties": {"type": "Poteau incendie 60 m³/h", "commune": "Lucgarier", "x": 440946.0, "y": 6241852.0}}, {"type": "Feature", "geometry": {"type": "Point", "coordinates": [-0.192336, 43.316406]}, "properties": {"type": "Poteau incendie 60 m³/h", "commune": "Espéchède", "x": 440954.0, "y": 6251598.0}}, {"type": "Feature", "geometry": {"type": "Point", "coordinates": [-0.18962, 43.267996]}, "properties": {"type": "Poteau incendie 60 m³/h", "commune": "Soumoulou", "x": 440957.0, "y": 6246212.0}}, {"type": "Feature", "geometry": {"type": "Point", "coordinates": [-0.193461, 43.337989]}, "properties": {"type": "Poteau incendie 60 m³/h", "commune": "Sedzère", "x": 440959.8, "y": 6253999.0}}, {"type": "Feature", "geometry": {"type": "Point", "coordinates": [-0.189451, 43.26629]}, "properties": {"type": "Poteau incendie 60 m³/h", "commune": "Soumoulou", "x": 440963.0, "y": 6246022.0}}, {"type": "Feature", "geometry": {"type": "Point", "coordinates": [-0.18891, 43.259626]}, "properties": {"type": "Poteau incendie 60 m³/h", "commune": "Soumoulou", "x": 440977.0, "y": 6245280.0}}, {"type": "Feature", "geometry": {"type": "Point", "coordinates": [-0.188798, 43.25827]}, "properties": {"type": "Poteau incendie 60 m³/h", "commune": "Soumoulou", "x": 440980.0, "y": 6245129.0}}, {"type": "Feature", "geometry": {"type": "Point", "coordinates": [-0.18876, 43.264267]}, "properties": {"type": "Poteau incendie 60 m³/h", "commune": "Soumoulou", "x": 441010.0, "y": 6245795.0}}, {"type": "Feature", "geometry": {"type": "Point", "coordinates": [-0.192745, 43.342774]}, "properties": {"type": "Réserve artificielle", "commune": "Sedzère", "x": 441039.34, "y": 6254528.13}}, {"type": "Feature", "geometry": {"type": "Point", "coordinates": [-0.188232, 43.269236]}, "properties": {"type": "Poteau incendie 60 m³/h", "commune": "Limendous", "x": 441075.19, "y": 6246345.13}}, {"type": "Feature", "geometry": {"type": "Point", "coordinates": [-0.187447, 43.258112]}, "properties": {"type": "Poteau incendie 60 m³/h", "commune": "Soumoulou", "x": 441089.0, "y": 6245107.0}}, {"type": "Feature", "geometry": {"type": "Point", "coordinates": [-0.187556, 43.260756]}, "properties": {"type": "Poteau incendie 60 m³/h", "commune": "Soumoulou", "x": 441092.0, "y": 6245401.0}}, {"type": "Feature", "geometry": {"type": "Point", "coordinates": [-0.187754, 43.268114]}, "properties": {"type": "Poteau incendie 60 m³/h", "commune": "Limendous", "x": 441109.0, "y": 6246219.0}}, {"type": "Feature", "geometry": {"type": "Point", "coordinates": [-0.18681, 43.259067]}, "properties": {"type": "Poteau incendie 60 m³/h", "commune": "Soumoulou", "x": 441145.0, "y": 6245211.0}}, {"type": "Feature", "geometry": {"type": "Point", "coordinates": [-0.186559, 43.259867]}, "properties": {"type": "Poteau incendie 60 m³/h", "commune": "Soumoulou", "x": 441169.0, "y": 6245299.0}}, {"type": "Feature", "geometry": {"type": "Point", "coordinates": [-0.187308, 43.279678]}, "properties": {"type": "Poteau incendie 60 m³/h", "commune": "Limendous", "x": 441197.0, "y": 6247502.0}}, {"type": "Feature", "geometry": {"type": "Point", "coordinates": [-0.18572, 43.268093]}, "properties": {"type": "Poteau incendie 60 m³/h", "commune": "Limendous", "x": 441274.0, "y": 6246210.0}}, {"type": "Feature", "geometry": {"type": "Point", "coordinates": [-0.184738, 43.260587]}, "properties": {"type": "Poteau incendie 60 m³/h", "commune": "Soumoulou", "x": 441320.0, "y": 6245373.0}}, {"type": "Feature", "geometry": {"type": "Point", "coordinates": [-0.184851, 43.265076]}, "properties": {"type": "Poteau incendie 60 m³/h", "commune": "Soumoulou", "x": 441331.0, "y": 6245872.0}}, {"type": "Feature", "geometry": {"type": "Point", "coordinates": [-0.182973, 43.234621]}, "properties": {"type": "Poteau incendie 60 m³/h", "commune": "Lucgarier", "x": 441347.0, "y": 6242483.0}}, {"type": "Feature", "geometry": {"type": "Point", "coordinates": [-0.18743, 43.318792]}, "properties": {"type": "Poteau incendie 60 m³/h", "commune": "Espéchède", "x": 441362.6, "y": 6251847.0}}, {"type": "Feature", "geometry": {"type": "Point", "coordinates": [-0.183976, 43.264633]}, "properties": {"type": "Poteau incendie 60 m³/h", "commune": "Soumoulou", "x": 441400.0, "y": 6245820.0}}, {"type": "Feature", "geometry": {"type": "Point", "coordinates": [-0.183531, 43.261928]}, "properties": {"type": "Poteau incendie 60 m³/h", "commune": "Soumoulou", "x": 441424.0, "y": 6245518.0}}, {"type": "Feature", "geometry": {"type": "Point", "coordinates": [-0.182807, 43.261526]}, "properties": {"type": "Poteau incendie 60 m³/h", "commune": "Soumoulou", "x": 441481.0, "y": 6245471.0}}, {"type": "Feature", "geometry": {"type": "Point", "coordinates": [-0.184842, 43.305562]}, "properties": {"type": "Poteau incendie 60 m³/h", "commune": "Espéchède", "x": 441513.2, "y": 6250369.0}}, {"type": "Feature", "geometry": {"type": "Point", "coordinates": [-0.18219, 43.260833]}, "properties": {"type": "Poteau incendie 60 m³/h", "commune": "Soumoulou", "x": 441528.0, "y": 6245392.0}}, {"type": "Feature", "geometry": {"type": "Point", "coordinates": [-0.182257, 43.264279]}, "properties": {"type": "Poteau incendie 60 m³/h", "commune": "Soumoulou", "x": 441538.0, "y": 6245775.0}}, {"type": "Feature", "geometry": {"type": "Point", "coordinates": [-0.181805, 43.262798]}, "properties": {"type": "Poteau incendie 60 m³/h", "commune": "Soumoulou", "x": 441568.0, "y": 6245609.0}}, {"type": "Feature", "geometry": {"type": "Point", "coordinates": [-0.182445, 43.276085]}, "properties": {"type": "Poteau incendie 60 m³/h", "commune": "Limendous", "x": 441575.6, "y": 6247087.0}}, {"type": "Feature", "geometry": {"type": "Point", "coordinates": [-0.180645, 43.255045]}, "properties": {"type": "Poteau incendie 60 m³/h", "commune": "Espoey", "x": 441627.5, "y": 6244744.0}}, {"type": "Feature", "geometry": {"type": "Point", "coordinates": [-0.183733, 43.317578]}, "properties": {"type": "Poteau incendie 60 m³/h", "commune": "Espéchède", "x": 441657.0, "y": 6251700.0}}, {"type": "Feature", "geometry": {"type": "Point", "coordinates": [-0.18052, 43.262944]}, "properties": {"type": "Poteau incendie 60 m³/h", "commune": "Soumoulou", "x": 441673.0, "y": 6245621.0}}, {"type": "Feature", "geometry": {"type": "Point", "coordinates": [-0.180868, 43.277509]}, "properties": {"type": "Poteau incendie 60 m³/h", "commune": "Limendous", "x": 441710.0, "y": 6247240.0}}, {"type": "Feature", "geometry": {"type": "Point", "coordinates": [-0.181124, 43.308075]}, "properties": {"type": "Poteau incendie 60 m³/h", "commune": "Espéchède", "x": 441826.0, "y": 6250636.0}}, {"type": "Feature", "geometry": {"type": "Point", "coordinates": [-0.178314, 43.262189]}, "properties": {"type": "Poteau incendie 60 m³/h", "commune": "Soumoulou", "x": 441848.7, "y": 6245530.0}}, {"type": "Feature", "geometry": {"type": "Point", "coordinates": [-0.178105, 43.269857]}, "properties": {"type": "Poteau incendie 60 m³/h", "commune": "Limendous", "x": 441900.0, "y": 6246381.0}}, {"type": "Feature", "geometry": {"type": "Point", "coordinates": [-0.177755, 43.272235]}, "properties": {"type": "Poteau incendie 60 m³/h", "commune": "Limendous", "x": 441939.0, "y": 6246644.0}}, {"type": "Feature", "geometry": {"type": "Point", "coordinates": [-0.179141, 43.304077]}, "properties": {"type": "Réserve artificielle", "commune": "Espéchède", "x": 441969.02, "y": 6250185.43}}, {"type": "Feature", "geometry": {"type": "Point", "coordinates": [-0.175047, 43.238015]}, "properties": {"type": "Réserve artificielle", "commune": "Espoey", "x": 442005.9, "y": 6242834.0}}, {"type": "Feature", "geometry": {"type": "Point", "coordinates": [-0.180642, 43.36002]}, "properties": {"type": "Poteau incendie 60 m³/h", "commune": "Sedzère", "x": 442097.7, "y": 6256404.0}}, {"type": "Feature", "geometry": {"type": "Point", "coordinates": [-0.17449, 43.254542]}, "properties": {"type": "Poteau incendie 60 m³/h", "commune": "Espoey", "x": 442125.0, "y": 6244668.0}}, {"type": "Feature", "geometry": {"type": "Point", "coordinates": [-0.17412, 43.262151]}, "properties": {"type": "Poteau incendie 60 m³/h", "commune": "Limendous", "x": 442189.0, "y": 6245512.0}}, {"type": "Feature", "geometry": {"type": "Point", "coordinates": [-0.172471, 43.249605]}, "properties": {"type": "Poteau incendie 60 m³/h", "commune": "Espoey", "x": 442266.8, "y": 6244113.0}}, {"type": "Feature", "geometry": {"type": "Point", "coordinates": [-0.174622, 43.295888]}, "properties": {"type": "Poteau incendie 60 m³/h", "commune": "Lourenties", "x": 442299.0, "y": 6249261.0}}, {"type": "Feature", "geometry": {"type": "Point", "coordinates": [-0.176719, 43.339473]}, "properties": {"type": "Poteau incendie 60 m³/h", "commune": "Sedzère", "x": 442323.7, "y": 6254109.0}}, {"type": "Feature", "geometry": {"type": "Point", "coordinates": [-0.170519, 43.246394]}, "properties": {"type": "Poteau incendie 60 m³/h", "commune": "Espoey", "x": 442411.0, "y": 6243750.0}}, {"type": "Feature", "geometry": {"type": "Point", "coordinates": [-0.17591, 43.3531]}, "properties": {"type": "Poteau incendie 60 m³/h", "commune": "Sedzère", "x": 442450.2, "y": 6255620.0}}, {"type": "Feature", "geometry": {"type": "Point", "coordinates": [-0.175659, 43.348741]}, "properties": {"type": "Poteau incendie 60 m³/h", "commune": "Sedzère", "x": 442451.1, "y": 6255135.0}}, {"type": "Feature", "geometry": {"type": "Point", "coordinates": [-0.174965, 43.341541]}, "properties": {"type": "Poteau incendie 60 m³/h", "commune": "Sedzère", "x": 442475.2, "y": 6254333.0}}, {"type": "Feature", "geometry": {"type": "Point", "coordinates": [-0.174566, 43.345775]}, "properties": {"type": "Poteau incendie 60 m³/h", "commune": "Sedzère", "x": 442526.4, "y": 6254802.0}}, {"type": "Feature", "geometry": {"type": "Point", "coordinates": [-0.169582, 43.257126]}, "properties": {"type": "Poteau incendie 60 m³/h", "commune": "Espoey", "x": 442535.0, "y": 6244939.0}}, {"type": "Feature", "geometry": {"type": "Point", "coordinates": [-0.168917, 43.245703]}, "properties": {"type": "Poteau incendie 60 m³/h", "commune": "Espoey", "x": 442538.0, "y": 6243668.0}}, {"type": "Feature", "geometry": {"type": "Point", "coordinates": [-0.173926, 43.342805]}, "properties": {"type": "Poteau incendie 60 m³/h", "commune": "Sedzère", "x": 442565.0, "y": 6254470.0}}, {"type": "Feature", "geometry": {"type": "Point", "coordinates": [-0.173397, 43.340156]}, "properties": {"type": "Poteau incendie 60 m³/h", "commune": "Sedzère", "x": 442596.1, "y": 6254174.0}}, {"type": "Feature", "geometry": {"type": "Point", "coordinates": [-0.168023, 43.244226]}, "properties": {"type": "Poteau incendie 60 m³/h", "commune": "Espoey", "x": 442604.0, "y": 6243501.0}}, {"type": "Feature", "geometry": {"type": "Point", "coordinates": [-0.172773, 43.341353]}, "properties": {"type": "Poteau incendie 60 m³/h", "commune": "Sedzère", "x": 442652.0, "y": 6254305.0}}, {"type": "Feature", "geometry": {"type": "Point", "coordinates": [-0.167274, 43.246732]}, "properties": {"type": "Poteau incendie 60 m³/h", "commune": "Espoey", "x": 442676.0, "y": 6243777.0}}, {"type": "Feature", "geometry": {"type": "Point", "coordinates": [-0.169687, 43.291774]}, "properties": {"type": "Poteau incendie 60 m³/h", "commune": "Lourenties", "x": 442681.0, "y": 6248788.0}}, {"type": "Feature", "geometry": {"type": "Point", "coordinates": [-0.166351, 43.242492]}, "properties": {"type": "Poteau incendie 60 m³/h", "commune": "Espoey", "x": 442732.1, "y": 6243303.0}}, {"type": "Feature", "geometry": {"type": "Point", "coordinates": [-0.170987, 43.335797]}, "properties": {"type": "Poteau incendie 60 m³/h", "commune": "Sedzère", "x": 442772.0, "y": 6253682.0}}, {"type": "Feature", "geometry": {"type": "Point", "coordinates": [-0.165861, 43.252598]}, "properties": {"type": "Poteau incendie 60 m³/h", "commune": "Espoey", "x": 442816.9, "y": 6244424.0}}, {"type": "Feature", "geometry": {"type": "Point", "coordinates": [-0.164017, 43.248421]}, "properties": {"type": "Poteau incendie 60 m³/h", "commune": "Espoey", "x": 442948.0, "y": 6243954.0}}, {"type": "Feature", "geometry": {"type": "Point", "coordinates": [-0.162685, 43.239854]}, "properties": {"type": "Poteau incendie 60 m³/h", "commune": "Espoey", "x": 443018.0, "y": 6242998.0}}, {"type": "Feature", "geometry": {"type": "Point", "coordinates": [-0.162877, 43.246276]}, "properties": {"type": "Poteau incendie 60 m³/h", "commune": "Espoey", "x": 443031.0, "y": 6243712.0}}, {"type": "Feature", "geometry": {"type": "Point", "coordinates": [-0.164959, 43.287141]}, "properties": {"type": "Poteau incendie 60 m³/h", "commune": "Lourenties", "x": 443044.0, "y": 6248258.0}}, {"type": "Feature", "geometry": {"type": "Point", "coordinates": [-0.165884, 43.316337]}, "properties": {"type": "Poteau incendie 60 m³/h", "commune": "Arrien", "x": 443099.0, "y": 6251504.0}}, {"type": "Feature", "geometry": {"type": "Point", "coordinates": [-0.166079, 43.321896]}, "properties": {"type": "Poteau incendie 60 m³/h", "commune": "Arrien", "x": 443108.0, "y": 6252122.0}}, {"type": "Feature", "geometry": {"type": "Point", "coordinates": [-0.165905, 43.330337]}, "properties": {"type": "Poteau incendie 60 m³/h", "commune": "Sedzère", "x": 443159.7, "y": 6253059.0}}, {"type": "Feature", "geometry": {"type": "Point", "coordinates": [-0.162002, 43.260643]}, "properties": {"type": "Poteau incendie 60 m³/h", "commune": "Espoey", "x": 443166.0, "y": 6245305.0}}, {"type": "Feature", "geometry": {"type": "Point", "coordinates": [-0.161821, 43.258019]}, "properties": {"type": "Poteau incendie 60 m³/h", "commune": "Espoey", "x": 443169.0, "y": 6245013.0}}, {"type": "Feature", "geometry": {"type": "Point", "coordinates": [-0.160779, 43.242529]}, "properties": {"type": "Poteau incendie 60 m³/h", "commune": "Espoey", "x": 443184.7, "y": 6243289.0}}, {"type": "Feature", "geometry": {"type": "Point", "coordinates": [-0.165999, 43.342893]}, "properties": {"type": "Poteau incendie 60 m³/h", "commune": "Sedzère", "x": 443208.02, "y": 6254454.0}}, {"type": "Feature", "geometry": {"type": "Point", "coordinates": [-0.162056, 43.290386]}, "properties": {"type": "Poteau incendie 60 m³/h", "commune": "Lourenties", "x": 443294.0, "y": 6248609.0}}, {"type": "Feature", "geometry": {"type": "Point", "coordinates": [-0.161514, 43.28455]}, "properties": {"type": "Poteau incendie 60 m³/h", "commune": "Lourenties", "x": 443312.0, "y": 6247959.0}}, {"type": "Feature", "geometry": {"type": "Point", "coordinates": [-0.158262, 43.237328]}, "properties": {"type": "Poteau incendie 60 m³/h", "commune": "Espoey", "x": 443366.0, "y": 6242703.0}}, {"type": "Feature", "geometry": {"type": "Point", "coordinates": [-0.162259, 43.319523]}, "properties": {"type": "Poteau incendie 60 m³/h", "commune": "Arrien", "x": 443407.2, "y": 6251846.0}}, {"type": "Feature", "geometry": {"type": "Point", "coordinates": [-0.15982, 43.286022]}, "properties": {"type": "Poteau incendie 60 m³/h", "commune": "Lourenties", "x": 443456.0, "y": 6248117.0}}, {"type": "Feature", "geometry": {"type": "Point", "coordinates": [-0.159951, 43.289304]}, "properties": {"type": "Poteau incendie 60 m³/h", "commune": "Lourenties", "x": 443460.0, "y": 6248482.0}}, {"type": "Feature", "geometry": {"type": "Point", "coordinates": [-0.159654, 43.287477]}, "properties": {"type": "Poteau incendie 60 m³/h", "commune": "Lourenties", "x": 443476.0, "y": 6248278.0}}, {"type": "Feature", "geometry": {"type": "Point", "coordinates": [-0.158947, 43.283797]}, "properties": {"type": "Poteau incendie 60 m³/h", "commune": "Lourenties", "x": 443517.0, "y": 6247867.0}}, {"type": "Feature", "geometry": {"type": "Point", "coordinates": [-0.156895, 43.248126]}, "properties": {"type": "Poteau incendie 60 m³/h", "commune": "Espoey", "x": 443525.0, "y": 6243898.0}}, {"type": "Feature", "geometry": {"type": "Point", "coordinates": [-0.159289, 43.293411]}, "properties": {"type": "Poteau incendie 60 m³/h", "commune": "Lourenties", "x": 443532.0, "y": 6248936.0}}, {"type": "Feature", "geometry": {"type": "Point", "coordinates": [-0.157227, 43.258478]}, "properties": {"type": "Poteau incendie 60 m³/h", "commune": "Espoey", "x": 443544.0, "y": 6245049.0}}, {"type": "Feature", "geometry": {"type": "Point", "coordinates": [-0.160091, 43.312474]}, "properties": {"type": "Poteau incendie 60 m³/h", "commune": "Arrien", "x": 443551.7, "y": 6251056.0}}, {"type": "Feature", "geometry": {"type": "Point", "coordinates": [-0.15367, 43.23216]}, "properties": {"type": "Poteau incendie 60 m³/h", "commune": "Espoey", "x": 443716.0, "y": 6242114.0}}, {"type": "Feature", "geometry": {"type": "Point", "coordinates": [-0.156497, 43.284517]}, "properties": {"type": "Poteau incendie 60 m³/h", "commune": "Lourenties", "x": 443719.0, "y": 6247939.0}}, {"type": "Feature", "geometry": {"type": "Point", "coordinates": [-0.160291, 43.359581]}, "properties": {"type": "Poteau incendie 60 m³/h", "commune": "Lespourcy", "x": 443745.0, "y": 6256289.0}}, {"type": "Feature", "geometry": {"type": "Point", "coordinates": [-0.157346, 43.307638]}, "properties": {"type": "Poteau incendie 60 m³/h", "commune": "Arrien", "x": 443752.8, "y": 6250510.0}}, {"type": "Feature", "geometry": {"type": "Point", "coordinates": [-0.155923, 43.288666]}, "properties": {"type": "Poteau incendie 60 m³/h", "commune": "Lourenties", "x": 443784.0, "y": 6248398.0}}, {"type": "Feature", "geometry": {"type": "Point", "coordinates": [-0.155151, 43.31025]}, "properties": {"type": "Poteau incendie 60 m³/h", "commune": "Arrien", "x": 443942.5, "y": 6250793.0}}, {"type": "Feature", "geometry": {"type": "Point", "coordinates": [-0.149899, 43.246538]}, "properties": {"type": "Poteau incendie 60 m³/h", "commune": "Espoey", "x": 444086.0, "y": 6243699.0}}, {"type": "Feature", "geometry": {"type": "Point", "coordinates": [-0.152894, 43.307956]}, "properties": {"type": "Poteau incendie 60 m³/h", "commune": "Arrien", "x": 444115.38, "y": 6250530.85}}, {"type": "Feature", "geometry": {"type": "Point", "coordinates": [-0.149354, 43.247734]}, "properties": {"type": "Poteau incendie 60 m³/h", "commune": "Espoey", "x": 444135.6, "y": 6243830.0}}, {"type": "Feature", "geometry": {"type": "Point", "coordinates": [-0.15414, 43.336785]}, "properties": {"type": "Poteau incendie 60 m³/h", "commune": "Urost", "x": 444142.3, "y": 6253737.0}}, {"type": "Feature", "geometry": {"type": "Point", "coordinates": [-0.153867, 43.332705]}, "properties": {"type": "Poteau incendie 60 m³/h", "commune": "Urost", "x": 444146.3, "y": 6253283.0}}, {"type": "Feature", "geometry": {"type": "Point", "coordinates": [-0.15307, 43.322978]}, "properties": {"type": "Poteau incendie 60 m³/h", "commune": "Lombia", "x": 444167.8, "y": 6252200.0}}, {"type": "Feature", "geometry": {"type": "Point", "coordinates": [-0.154183, 43.343365]}, "properties": {"type": "Poteau incendie 60 m³/h", "commune": "Urost", "x": 444168.0, "y": 6254468.0}}, {"type": "Feature", "geometry": {"type": "Point", "coordinates": [-0.153605, 43.349171]}, "properties": {"type": "Poteau incendie 60 m³/h", "commune": "Lespourcy", "x": 444240.6, "y": 6255111.0}}, {"type": "Feature", "geometry": {"type": "Point", "coordinates": [-0.152207, 43.329458]}, "properties": {"type": "Poteau incendie 30 m³/h", "commune": "Lombia", "x": 444266.5, "y": 6252917.0}}, {"type": "Feature", "geometry": {"type": "Point", "coordinates": [-0.151703, 43.32933]}, "properties": {"type": "Réserve artificielle", "commune": "Lombia", "x": 444306.79, "y": 6252901.07}}, {"type": "Feature", "geometry": {"type": "Point", "coordinates": [-0.149848, 43.298836]}, "properties": {"type": "Poteau incendie 60 m³/h", "commune": "Eslourenties-Daban", "x": 444322.0, "y": 6249508.0}}, {"type": "Feature", "geometry": {"type": "Point", "coordinates": [-0.146821, 43.247673]}, "properties": {"type": "Poteau incendie 60 m³/h", "commune": "Espoey", "x": 444341.0, "y": 6243815.0}}, {"type": "Feature", "geometry": {"type": "Point", "coordinates": [-0.151736, 43.355581]}, "properties": {"type": "Poteau incendie 60 m³/h", "commune": "Lespourcy", "x": 444420.6, "y": 6255817.0}}, {"type": "Feature", "geometry": {"type": "Point", "coordinates": [-0.152201, 43.36503]}, "properties": {"type": "Poteau incendie 60 m³/h", "commune": "Lespourcy", "x": 444424.8, "y": 6256868.0}}, {"type": "Feature", "geometry": {"type": "Point", "coordinates": [-0.151334, 43.36818]}, "properties": {"type": "Poteau incendie 60 m³/h", "commune": "Lespourcy", "x": 444509.0, "y": 6257215.0}}, {"type": "Feature", "geometry": {"type": "Point", "coordinates": [-0.150783, 43.362037]}, "properties": {"type": "Poteau incendie 60 m³/h", "commune": "Lespourcy", "x": 444526.4, "y": 6256531.0}}, {"type": "Feature", "geometry": {"type": "Point", "coordinates": [-0.1498, 43.359851]}, "properties": {"type": "Poteau incendie 60 m³/h", "commune": "Lespourcy", "x": 444596.4, "y": 6256285.0}}, {"type": "Feature", "geometry": {"type": "Point", "coordinates": [-0.148129, 43.338948]}, "properties": {"type": "Réserve artificielle", "commune": "Urost", "x": 444639.21, "y": 6253957.82}}, {"type": "Feature", "geometry": {"type": "Point", "coordinates": [-0.14593, 43.300445]}, "properties": {"type": "Poteau incendie 60 m³/h", "commune": "Eslourenties-Daban", "x": 444647.0, "y": 6249674.0}}, {"type": "Feature", "geometry": {"type": "Point", "coordinates": [-0.144968, 43.298843]}, "properties": {"type": "Poteau incendie 60 m³/h", "commune": "Eslourenties-Daban", "x": 444718.0, "y": 6249493.0}}, {"type": "Feature", "geometry": {"type": "Point", "coordinates": [-0.144415, 43.297302]}, "properties": {"type": "Poteau incendie 60 m³/h", "commune": "Eslourenties-Daban", "x": 444756.0, "y": 6249320.0}}, {"type": "Feature", "geometry": {"type": "Point", "coordinates": [-0.141996, 43.255912]}, "properties": {"type": "Réserve artificielle", "commune": "Espoey", "x": 444769.22, "y": 6244714.69}}, {"type": "Feature", "geometry": {"type": "Point", "coordinates": [-0.143361, 43.297234]}, "properties": {"type": "Poteau incendie 60 m³/h", "commune": "Eslourenties-Daban", "x": 444841.2, "y": 6249309.0}}, {"type": "Feature", "geometry": {"type": "Point", "coordinates": [-0.142722, 43.299035]}, "properties": {"type": "Poteau incendie 60 m³/h", "commune": "Eslourenties-Daban", "x": 444901.0, "y": 6249507.0}}, {"type": "Feature", "geometry": {"type": "Point", "coordinates": [-0.139621, 43.245488]}, "properties": {"type": "Poteau incendie 60 m³/h", "commune": "Espoey", "x": 444916.0, "y": 6243549.0}}, {"type": "Feature", "geometry": {"type": "Point", "coordinates": [-0.141187, 43.283298]}, "properties": {"type": "Réserve artificielle", "commune": "Lourenties", "x": 444956.0, "y": 6247754.0}}, {"type": "Feature", "geometry": {"type": "Point", "coordinates": [-0.141271, 43.301031]}, "properties": {"type": "Poteau incendie 30 m³/h", "commune": "Eslourenties-Daban", "x": 445027.6, "y": 6249724.0}}, {"type": "Feature", "geometry": {"type": "Point", "coordinates": [-0.140774, 43.292456]}, "properties": {"type": "Poteau incendie 60 m³/h", "commune": "Eslourenties-Daban", "x": 445030.0, "y": 6248770.0}}, {"type": "Feature", "geometry": {"type": "Point", "coordinates": [-0.141275, 43.303461]}, "properties": {"type": "Poteau incendie 60 m³/h", "commune": "Eslourenties-Daban", "x": 445038.0, "y": 6249994.0}}, {"type": "Feature", "geometry": {"type": "Point", "coordinates": [-0.141626, 43.323365]}, "properties": {"type": "Poteau incendie 60 m³/h", "commune": "Lombia", "x": 445097.5, "y": 6252206.0}}, {"type": "Feature", "geometry": {"type": "Point", "coordinates": [-0.136741, 43.254817]}, "properties": {"type": "Poteau incendie 60 m³/h", "commune": "Espoey", "x": 445191.0, "y": 6244576.0}}, {"type": "Feature", "geometry": {"type": "Point", "coordinates": [-0.135874, 43.2545]}, "properties": {"type": "Poteau incendie 60 m³/h", "commune": "Espoey", "x": 445260.0, "y": 6244538.0}}, {"type": "Feature", "geometry": {"type": "Point", "coordinates": [-0.138358, 43.304671]}, "properties": {"type": "Poteau incendie 60 m³/h", "commune": "Eslourenties-Daban", "x": 445280.0, "y": 6250119.0}}, {"type": "Feature", "geometry": {"type": "Point", "coordinates": [-0.135269, 43.297114]}, "properties": {"type": "Poteau incendie 60 m³/h", "commune": "Eslourenties-Daban", "x": 445497.19, "y": 6249269.65}}, {"type": "Feature", "geometry": {"type": "Point", "coordinates": [-0.135803, 43.326794]}, "properties": {"type": "Poteau incendie 60 m³/h", "commune": "Lombia", "x": 445584.9, "y": 6252568.0}}, {"type": "Feature", "geometry": {"type": "Point", "coordinates": [-0.133057, 43.29945]}, "properties": {"type": "Poteau incendie 60 m³/h", "commune": "Eslourenties-Daban", "x": 445687.0, "y": 6249522.0}}, {"type": "Feature", "geometry": {"type": "Point", "coordinates": [-0.134168, 43.330046]}, "properties": {"type": "Poteau incendie 60 m³/h", "commune": "Lombia", "x": 445731.8, "y": 6252924.0}}, {"type": "Feature", "geometry": {"type": "Point", "coordinates": [-0.132253, 43.310979]}, "properties": {"type": "Poteau incendie 60 m³/h", "commune": "Saubole", "x": 445803.0, "y": 6250800.0}}, {"type": "Feature", "geometry": {"type": "Point", "coordinates": [-0.130912, 43.328862]}, "properties": {"type": "Réserve artificielle", "commune": "Lombia", "x": 445990.6, "y": 6252781.96}}, {"type": "Feature", "geometry": {"type": "Point", "coordinates": [-0.129048, 43.316204]}, "properties": {"type": "Poteau incendie 60 m³/h", "commune": "Saubole", "x": 446086.0, "y": 6251370.0}}, {"type": "Feature", "geometry": {"type": "Point", "coordinates": [-0.130192, 43.339308]}, "properties": {"type": "Poteau incendie 60 m³/h", "commune": "Lombia", "x": 446095.0, "y": 6253940.0}}, {"type": "Feature", "geometry": {"type": "Point", "coordinates": [-0.127197, 43.287485]}, "properties": {"type": "Poteau incendie 60 m³/h", "commune": "Gardères", "x": 446109.7, "y": 6248174.0}}, {"type": "Feature", "geometry": {"type": "Point", "coordinates": [-0.128338, 43.318508]}, "properties": {"type": "Poteau incendie 60 m³/h", "commune": "Saubole", "x": 446153.69, "y": 6251623.66}}, {"type": "Feature", "geometry": {"type": "Point", "coordinates": [-0.127333, 43.311781]}, "properties": {"type": "Poteau incendie 60 m³/h", "commune": "Saubole", "x": 446205.66, "y": 6250873.22}}, {"type": "Feature", "geometry": {"type": "Point", "coordinates": [-0.128215, 43.343192]}, "properties": {"type": "Poteau incendie 60 m³/h", "commune": "Sedze-Maubecq", "x": 446272.4, "y": 6254365.0}}, {"type": "Feature", "geometry": {"type": "Point", "coordinates": [-0.123374, 43.25975]}, "properties": {"type": "Poteau incendie 60 m³/h", "commune": "Luquet", "x": 446298.0, "y": 6245081.0}}, {"type": "Feature", "geometry": {"type": "Point", "coordinates": [-0.125724, 43.324502]}, "properties": {"type": "Poteau incendie 60 m³/h", "commune": "Lombia", "x": 446392.1, "y": 6252281.0}}, {"type": "Feature", "geometry": {"type": "Point", "coordinates": [-0.123498, 43.285017]}, "properties": {"type": "Poteau incendie 60 m³/h", "commune": "Gardères", "x": 446399.0, "y": 6247888.0}}, {"type": "Feature", "geometry": {"type": "Point", "coordinates": [-0.120863, 43.254323]}, "properties": {"type": "Poteau incendie 60 m³/h", "commune": "Luquet", "x": 446478.0, "y": 6244470.0}}, {"type": "Feature", "geometry": {"type": "Point", "coordinates": [-0.126359, 43.357209]}, "properties": {"type": "Poteau incendie 60 m³/h", "commune": "Sedze-Maubecq", "x": 446484.5, "y": 6255916.0}}, {"type": "Feature", "geometry": {"type": "Point", "coordinates": [-0.125651, 43.353529]}, "properties": {"type": "Poteau incendie 60 m³/h", "commune": "Sedze-Maubecq", "x": 446525.7, "y": 6255505.0}}, {"type": "Feature", "geometry": {"type": "Point", "coordinates": [-0.124566, 43.345647]}, "properties": {"type": "Poteau incendie 60 m³/h", "commune": "Sedze-Maubecq", "x": 446579.0, "y": 6254626.0}}, {"type": "Feature", "geometry": {"type": "Point", "coordinates": [-0.122504, 43.312396]}, "properties": {"type": "Poteau incendie 60 m³/h", "commune": "Saubole", "x": 446600.0, "y": 6250926.0}}, {"type": "Feature", "geometry": {"type": "Point", "coordinates": [-0.119924, 43.265648]}, "properties": {"type": "Poteau incendie 60 m³/h", "commune": "Luquet", "x": 446604.0, "y": 6245725.0}}, {"type": "Feature", "geometry": {"type": "Point", "coordinates": [-0.124379, 43.349497]}, "properties": {"type": "Poteau incendie 60 m³/h", "commune": "Sedze-Maubecq", "x": 446611.1, "y": 6255053.0}}, {"type": "Feature", "geometry": {"type": "Point", "coordinates": [-0.123678, 43.351867]}, "properties": {"type": "Poteau incendie 60 m³/h", "commune": "Sedze-Maubecq", "x": 446678.3, "y": 6255314.0}}, {"type": "Feature", "geometry": {"type": "Point", "coordinates": [-0.118678, 43.261966]}, "properties": {"type": "Poteau incendie 60 m³/h", "commune": "Luquet", "x": 446689.0, "y": 6245312.0}}, {"type": "Feature", "geometry": {"type": "Point", "coordinates": [-0.118337, 43.258852]}, "properties": {"type": "Poteau incendie 60 m³/h", "commune": "Luquet", "x": 446703.0, "y": 6244965.0}}, {"type": "Feature", "geometry": {"type": "Point", "coordinates": [-0.116803, 43.25462]}, "properties": {"type": "Poteau incendie 60 m³/h", "commune": "Luquet", "x": 446809.0, "y": 6244490.0}}, {"type": "Feature", "geometry": {"type": "Point", "coordinates": [-0.116369, 43.247214]}, "properties": {"type": "Poteau incendie 60 m³/h", "commune": "Luquet", "x": 446811.7, "y": 6243666.0}}, {"type": "Feature", "geometry": {"type": "Point", "coordinates": [-0.115576, 43.24857]}, "properties": {"type": "Poteau incendie 60 m³/h", "commune": "Luquet", "x": 446882.1, "y": 6243814.0}}, {"type": "Feature", "geometry": {"type": "Point", "coordinates": [-0.115233, 43.247427]}, "properties": {"type": "Poteau incendie 60 m³/h", "commune": "Luquet", "x": 446904.9, "y": 6243686.0}}, {"type": "Feature", "geometry": {"type": "Point", "coordinates": [-0.115047, 43.250304]}, "properties": {"type": "Poteau incendie 60 m³/h", "commune": "Luquet", "x": 446932.6, "y": 6244005.0}}, {"type": "Feature", "geometry": {"type": "Point", "coordinates": [-0.114675, 43.277944]}, "properties": {"type": "Poteau incendie 60 m³/h", "commune": "Gardères", "x": 447084.0, "y": 6247074.0}}, {"type": "Feature", "geometry": {"type": "Point", "coordinates": [-0.112155, 43.280339]}, "properties": {"type": "Poteau incendie 60 m³/h", "commune": "Gardères", "x": 447299.0, "y": 6247332.0}}, {"type": "Feature", "geometry": {"type": "Point", "coordinates": [-0.112094, 43.28423]}, "properties": {"type": "Poteau incendie 60 m³/h", "commune": "Gardères", "x": 447321.0, "y": 6247764.0}}, {"type": "Feature", "geometry": {"type": "Point", "coordinates": [-0.109587, 43.27818]}, "properties": {"type": "Poteau incendie 60 m³/h", "commune": "Gardères", "x": 447498.0, "y": 6247084.0}}, {"type": "Feature", "geometry": {"type": "Point", "coordinates": [-0.109974, 43.288333]}, "properties": {"type": "Poteau incendie 60 m³/h", "commune": "Gardères", "x": 447511.0, "y": 6248213.0}}, {"type": "Feature", "geometry": {"type": "Point", "coordinates": [-0.107429, 43.293709]}, "properties": {"type": "Poteau incendie 60 m³/h", "commune": "Gardères", "x": 447741.0, "y": 6248802.0}}, {"type": "Feature", "geometry": {"type": "Point", "coordinates": [-0.105779, 43.308367]}, "properties": {"type": "Poteau incendie 60 m³/h", "commune": "Saubole", "x": 447939.0, "y": 6250425.0}}, {"type": "Feature", "geometry": {"type": "Point", "coordinates": [-0.102914, 43.344461]}, "properties": {"type": "Poteau incendie 60 m³/h", "commune": "Bédeille", "x": 448329.0, "y": 6254425.0}}, {"type": "Feature", "geometry": {"type": "Point", "coordinates": [-0.098465, 43.277122]}, "properties": {"type": "Poteau incendie 60 m³/h", "commune": "Gardères", "x": 448396.0, "y": 6246931.0}}, {"type": "Feature", "geometry": {"type": "Point", "coordinates": [-0.100971, 43.339881]}, "properties": {"type": "Réserve artificielle", "commune": "Bédeille", "x": 448466.52, "y": 6253910.05}}, {"type": "Feature", "geometry": {"type": "Point", "coordinates": [-0.100717, 43.337105]}, "properties": {"type": "Poteau incendie 60 m³/h", "commune": "Bédeille", "x": 448475.0, "y": 6253601.0}}, {"type": "Feature", "geometry": {"type": "Point", "coordinates": [-0.099729, 43.353598]}, "properties": {"type": "Réserve artificielle", "commune": "Bédeille", "x": 448627.09, "y": 6255429.71}}, {"type": "Feature", "geometry": {"type": "Point", "coordinates": [-0.095508, 43.306568]}, "properties": {"type": "Réserve artificielle", "commune": "Saubole", "x": 448764.28, "y": 6250192.38}}]}